[{"OBJECT_NAME":"STARLINK-1230","OBJECT_ID":"2020-012M","EPOCH":"2026-03-18T23:02:34.847520","MEAN_MOTION":15.30199481,"ECCENTRICITY":0.00015891,"INCLINATION":53.1626,"RA_OF_ASC_NODE":356.6716,"ARG_OF_PERICENTER":79.0669,"MEAN_ANOMALY":281.051,"EPHEMERIS_TYPE":0,"CLASSIFICATION_TYPE":"U","NORAD_CAT_ID":45189,"ELEMENT_SET_NO":999,"REV_AT_EPOCH":33358,"BSTAR":-4.0139454e-5,"MEAN_MOTION_DOT":-1.548e-5,"MEAN_MOTION_DDOT":0},{"OBJECT_NAME":"STARLINK-1234","OBJECT_ID":"2020-012N","EPOCH":"2026-03-18T20:32:58.858656","MEAN_MOTION":15.6453118,"ECCENTRICITY":0.00051178,"INCLINATION":53.0417,"RA_OF_ASC_NODE":280.4086,"ARG_OF_PERICENTER":321.4958,"MEAN_ANOMALY":38.5691,"EPHEMERIS_TYPE":0,"CLASSIFICATION_TYPE":"U","NORAD_CAT_ID":45190,"ELEMENT_SET_NO":999,"REV_AT_EPOCH":33731,"BSTAR":0.0011562081,"MEAN_MOTION_DOT":0.00114656,"MEAN_MOTION_DDOT":0},{"OBJECT_NAME":"STARLINK-1269","OBJECT_ID":"2020-012V","EPOCH":"2026-03-18T22:58:01.526304","MEAN_MOTION":15.30178629,"ECCENTRICITY":0.00014182,"INCLINATION":53.1617,"RA_OF_ASC_NODE":356.5451,"ARG_OF_PERICENTER":80.9921,"MEAN_ANOMALY":279.124,"EPHEMERIS_TYPE":0,"CLASSIFICATION_TYPE":"U","NORAD_CAT_ID":45197,"ELEMENT_SET_NO":999,"REV_AT_EPOCH":33633,"BSTAR":-2.7304145e-5,"MEAN_MOTION_DOT":-1.167e-5,"MEAN_MOTION_DDOT":0},{"OBJECT_NAME":"STARLINK-1154","OBJECT_ID":"2020-012W","EPOCH":"2026-03-18T22:11:32.573184","MEAN_MOTION":15.476942,"ECCENTRICITY":0.00071242,"INCLINATION":53.0489,"RA_OF_ASC_NODE":325.8951,"ARG_OF_PERICENTER":128.3979,"MEAN_ANOMALY":231.7668,"EPHEMERIS_TYPE":0,"CLASSIFICATION_TYPE":"U","NORAD_CAT_ID":45198,"ELEMENT_SET_NO":999,"REV_AT_EPOCH":33672,"BSTAR":0.0012329448,"MEAN_MOTION_DOT":0.00064965,"MEAN_MOTION_DDOT":0},{"OBJECT_NAME":"STARLINK-1199","OBJECT_ID":"2020-012Z","EPOCH":"2026-03-18T23:47:49.786944","MEAN_MOTION":15.30204758,"ECCENTRICITY":0.00011652,"INCLINATION":53.161,"RA_OF_ASC_NODE":340.6322,"ARG_OF_PERICENTER":97.0462,"MEAN_ANOMALY":263.0671,"EPHEMERIS_TYPE":0,"CLASSIFICATION_TYPE":"U","NORAD_CAT_ID":45201,"ELEMENT_SET_NO":999,"REV_AT_EPOCH":33658,"BSTAR":0.00013161455,"MEAN_MOTION_DOT":3.541e-5,"MEAN_MOTION_DDOT":0},{"OBJECT_NAME":"STARLINK-1209","OBJECT_ID":"2020-012AE","EPOCH":"2026-03-18T21:12:37.105920","MEAN_MOTION":15.52785053,"ECCENTRICITY":0.0006838,"INCLINATION":53.0449,"RA_OF_ASC_NODE":289.1926,"ARG_OF_PERICENTER":302.0729,"MEAN_ANOMALY":57.9616,"EPHEMERIS_TYPE":0,"CLASSIFICATION_TYPE":"U","NORAD_CAT_ID":45206,"ELEMENT_SET_NO":999,"REV_AT_EPOCH":33634,"BSTAR":0.0010960149,"MEAN_MOTION_DOT":0.00069202,"MEAN_MOTION_DDOT":0},{"OBJECT_NAME":"STARLINK-1231","OBJECT_ID":"2020-012AL","EPOCH":"2026-03-18T22:35:37.934592","MEAN_MOTION":15.21996429,"ECCENTRICITY":0.00043388,"INCLINATION":53.0479,"RA_OF_ASC_NODE":333.2737,"ARG_OF_PERICENTER":125.3311,"MEAN_ANOMALY":234.8091,"EPHEMERIS_TYPE":0,"CLASSIFICATION_TYPE":"U","NORAD_CAT_ID":45212,"ELEMENT_SET_NO":999,"REV_AT_EPOCH":33663,"BSTAR":0.0015591773,"MEAN_MOTION_DOT":0.00035906,"MEAN_MOTION_DDOT":0},{"OBJECT_NAME":"STARLINK-1271","OBJECT_ID":"2020-012AR","EPOCH":"2026-03-18T23:44:50.215776","MEAN_MOTION":15.30206577,"ECCENTRICITY":0.0001033,"INCLINATION":53.1614,"RA_OF_ASC_NODE":340.766,"ARG_OF_PERICENTER":63.234,"MEAN_ANOMALY":296.8767,"EPHEMERIS_TYPE":0,"CLASSIFICATION_TYPE":"U","NORAD_CAT_ID":45217,"ELEMENT_SET_NO":999,"REV_AT_EPOCH":33658,"BSTAR":0.0002309635,"MEAN_MOTION_DOT":6.489e-5,"MEAN_MOTION_DDOT":0},{"OBJECT_NAME":"STARLINK-1191","OBJECT_ID":"2020-012AW","EPOCH":"2026-03-18T22:37:00.475104","MEAN_MOTION":15.30946733,"ECCENTRICITY":9.513e-5,"INCLINATION":53.1589,"RA_OF_ASC_NODE":315.8301,"ARG_OF_PERICENTER":137.3436,"MEAN_ANOMALY":222.7639,"EPHEMERIS_TYPE":0,"CLASSIFICATION_TYPE":"U","NORAD_CAT_ID":45222,"ELEMENT_SET_NO":999,"REV_AT_EPOCH":33693,"BSTAR":0.0015991309,"MEAN_MOTION_DOT":0.00048425,"MEAN_MOTION_DDOT":0},{"OBJECT_NAME":"STARLINK-1212","OBJECT_ID":"2020-012AX","EPOCH":"2026-03-18T22:11:21.331680","MEAN_MOTION":15.53912366,"ECCENTRICITY":0.00054035,"INCLINATION":53.0482,"RA_OF_ASC_NODE":305.5711,"ARG_OF_PERICENTER":154.7922,"MEAN_ANOMALY":205.3352,"EPHEMERIS_TYPE":0,"CLASSIFICATION_TYPE":"U","NORAD_CAT_ID":45223,"ELEMENT_SET_NO":999,"REV_AT_EPOCH":33707,"BSTAR":0.001187253,"MEAN_MOTION_DOT":0.00078207,"MEAN_MOTION_DDOT":0},{"OBJECT_NAME":"STARLINK-1215","OBJECT_ID":"2020-012AZ","EPOCH":"2026-03-18T22:19:47.844768","MEAN_MOTION":15.30204834,"ECCENTRICITY":0.00013227,"INCLINATION":53.1602,"RA_OF_ASC_NODE":315.3842,"ARG_OF_PERICENTER":75.6815,"MEAN_ANOMALY":284.4333,"EPHEMERIS_TYPE":0,"CLASSIFICATION_TYPE":"U","NORAD_CAT_ID":45225,"ELEMENT_SET_NO":999,"REV_AT_EPOCH":33689,"BSTAR":0.00028322432,"MEAN_MOTION_DOT":8.039e-5,"MEAN_MOTION_DDOT":0},{"OBJECT_NAME":"STARLINK-1221","OBJECT_ID":"2020-012BB","EPOCH":"2026-03-18T18:58:18.718752","MEAN_MOTION":15.42253303,"ECCENTRICITY":0.00035075,"INCLINATION":53.0642,"RA_OF_ASC_NODE":226.4762,"ARG_OF_PERICENTER":63.225,"MEAN_ANOMALY":296.9114,"EPHEMERIS_TYPE":0,"CLASSIFICATION_TYPE":"U","NORAD_CAT_ID":45227,"ELEMENT_SET_NO":999,"REV_AT_EPOCH":33811,"BSTAR":0.00034682951,"MEAN_MOTION_DOT":0.00014759,"MEAN_MOTION_DDOT":0},{"OBJECT_NAME":"STARLINK-1222","OBJECT_ID":"2020-012BC","EPOCH":"2026-03-18T21:46:00.615648","MEAN_MOTION":15.50132356,"ECCENTRICITY":0.00039714,"INCLINATION":53.0554,"RA_OF_ASC_NODE":298.6022,"ARG_OF_PERICENTER":115.0921,"MEAN_ANOMALY":245.05,"EPHEMERIS_TYPE":0,"CLASSIFICATION_TYPE":"U","NORAD_CAT_ID":45228,"ELEMENT_SET_NO":999,"REV_AT_EPOCH":33705,"BSTAR":0.00038836655,"MEAN_MOTION_DOT":0.00021851,"MEAN_MOTION_DDOT":0},{"OBJECT_NAME":"STARLINK-1226","OBJECT_ID":"2020-012BD","EPOCH":"2026-03-18T22:59:23.650368","MEAN_MOTION":15.30931565,"ECCENTRICITY":0.00011666,"INCLINATION":53.158,"RA_OF_ASC_NODE":315.5477,"ARG_OF_PERICENTER":109.3594,"MEAN_ANOMALY":250.7534,"EPHEMERIS_TYPE":0,"CLASSIFICATION_TYPE":"U","NORAD_CAT_ID":45229,"ELEMENT_SET_NO":999,"REV_AT_EPOCH":33683,"BSTAR":0.00063144594,"MEAN_MOTION_DOT":0.00018817,"MEAN_MOTION_DDOT":0},{"OBJECT_NAME":"STARLINK-1227","OBJECT_ID":"2020-012BE","EPOCH":"2026-03-18T21:50:16.333728","MEAN_MOTION":15.31565722,"ECCENTRICITY":8.721e-5,"INCLINATION":53.1601,"RA_OF_ASC_NODE":315.9707,"ARG_OF_PERICENTER":116.4163,"MEAN_ANOMALY":243.6928,"EPHEMERIS_TYPE":0,"CLASSIFICATION_TYPE":"U","NORAD_CAT_ID":45230,"ELEMENT_SET_NO":999,"REV_AT_EPOCH":33694,"BSTAR":0.00059959064,"MEAN_MOTION_DOT":0.00018209,"MEAN_MOTION_DDOT":0},{"OBJECT_NAME":"STARLINK-1246","OBJECT_ID":"2020-012BK","EPOCH":"2026-03-18T23:11:34.387008","MEAN_MOTION":15.30206539,"ECCENTRICITY":0.0001434,"INCLINATION":53.163,"RA_OF_ASC_NODE":356.1614,"ARG_OF_PERICENTER":74.4177,"MEAN_ANOMALY":285.6982,"EPHEMERIS_TYPE":0,"CLASSIFICATION_TYPE":"U","NORAD_CAT_ID":45235,"ELEMENT_SET_NO":999,"REV_AT_EPOCH":33639,"BSTAR":0.00013856578,"MEAN_MOTION_DOT":3.748e-5,"MEAN_MOTION_DDOT":0},{"OBJECT_NAME":"STARLINK-1270","OBJECT_ID":"2020-012BM","EPOCH":"2026-03-18T22:40:52.879008","MEAN_MOTION":15.48547712,"ECCENTRICITY":0.00031674,"INCLINATION":53.049,"RA_OF_ASC_NODE":303.2902,"ARG_OF_PERICENTER":140.0196,"MEAN_ANOMALY":220.1045,"EPHEMERIS_TYPE":0,"CLASSIFICATION_TYPE":"U","NORAD_CAT_ID":45237,"ELEMENT_SET_NO":999,"REV_AT_EPOCH":33710,"BSTAR":0.0012749042,"MEAN_MOTION_DOT":0.0006922,"MEAN_MOTION_DDOT":0},{"OBJECT_NAME":"STARLINK-1279","OBJECT_ID":"2020-019A","EPOCH":"2026-03-18T03:58:10.655904","MEAN_MOTION":15.58736635,"ECCENTRICITY":0.0002091,"INCLINATION":53.0428,"RA_OF_ASC_NODE":57.5257,"ARG_OF_PERICENTER":112.07,"MEAN_ANOMALY":248.0533,"EPHEMERIS_TYPE":0,"CLASSIFICATION_TYPE":"U","NORAD_CAT_ID":45360,"ELEMENT_SET_NO":999,"REV_AT_EPOCH":33199,"BSTAR":0.0013829,"MEAN_MOTION_DOT":0.00109488,"MEAN_MOTION_DDOT":0},{"OBJECT_NAME":"STARLINK-1301","OBJECT_ID":"2020-019B","EPOCH":"2026-03-18T15:53:04.039584","MEAN_MOTION":15.6596114,"ECCENTRICITY":5.211e-5,"INCLINATION":53.0416,"RA_OF_ASC_NODE":60.002,"ARG_OF_PERICENTER":190.0702,"MEAN_ANOMALY":170.0302,"EPHEMERIS_TYPE":0,"CLASSIFICATION_TYPE":"U","NORAD_CAT_ID":45361,"ELEMENT_SET_NO":999,"REV_AT_EPOCH":33201,"BSTAR":0.00046329381,"MEAN_MOTION_DOT":0.00047892,"MEAN_MOTION_DDOT":0},{"OBJECT_NAME":"STARLINK-1262","OBJECT_ID":"2020-019G","EPOCH":"2026-03-18T19:42:09.177984","MEAN_MOTION":15.29353659,"ECCENTRICITY":0.00012354,"INCLINATION":53.156,"RA_OF_ASC_NODE":122.7494,"ARG_OF_PERICENTER":96.5145,"MEAN_ANOMALY":263.5996,"EPHEMERIS_TYPE":0,"CLASSIFICATION_TYPE":"U","NORAD_CAT_ID":45366,"ELEMENT_SET_NO":999,"REV_AT_EPOCH":33115,"BSTAR":7.8517292e-5,"MEAN_MOTION_DOT":1.91e-5,"MEAN_MOTION_DDOT":0},{"OBJECT_NAME":"STARLINK-1273","OBJECT_ID":"2020-019H","EPOCH":"2026-03-18T18:50:29.713632","MEAN_MOTION":15.45613461,"ECCENTRICITY":0.00035606,"INCLINATION":53.0493,"RA_OF_ASC_NODE":111.4997,"ARG_OF_PERICENTER":30.4959,"MEAN_ANOMALY":329.6254,"EPHEMERIS_TYPE":0,"CLASSIFICATION_TYPE":"U","NORAD_CAT_ID":45367,"ELEMENT_SET_NO":999,"REV_AT_EPOCH":33130,"BSTAR":0.001198349,"MEAN_MOTION_DOT":0.00058648,"MEAN_MOTION_DDOT":0},{"OBJECT_NAME":"STARLINK-1276","OBJECT_ID":"2020-019J","EPOCH":"2026-03-18T10:02:34.549152","MEAN_MOTION":15.11174387,"ECCENTRICITY":0.00014949,"INCLINATION":53.0734,"RA_OF_ASC_NODE":127.1986,"ARG_OF_PERICENTER":88.7089,"MEAN_ANOMALY":271.4073,"EPHEMERIS_TYPE":0,"CLASSIFICATION_TYPE":"U","NORAD_CAT_ID":45368,"ELEMENT_SET_NO":999,"REV_AT_EPOCH":33105,"BSTAR":0.00097920381,"MEAN_MOTION_DOT":0.00016364,"MEAN_MOTION_DDOT":0},{"OBJECT_NAME":"STARLINK-1277","OBJECT_ID":"2020-019K","EPOCH":"2026-03-18T18:53:58.845696","MEAN_MOTION":15.50488109,"ECCENTRICITY":0.00055239,"INCLINATION":53.0512,"RA_OF_ASC_NODE":108.9782,"ARG_OF_PERICENTER":39.1768,"MEAN_ANOMALY":320.9639,"EPHEMERIS_TYPE":0,"CLASSIFICATION_TYPE":"U","NORAD_CAT_ID":45369,"ELEMENT_SET_NO":999,"REV_AT_EPOCH":33134,"BSTAR":0.0012791393,"MEAN_MOTION_DOT":0.00074463,"MEAN_MOTION_DDOT":0}]
